1 00010U          23274.66666667  .00000000  00000-0  00000-0 0 00001
2 00010 097.4473 100.1972 0002728 252.7488 115.4185 15.16151238000011
